OBJECT_NAME,OBJECT_ID,EPOCH,MEAN_MOTION,ECCENTRICITY,INCLINATION,RA_OF_ASC_NODE,ARG_OF_PERICENTER,MEAN_ANOMALY,EPHEMERIS_TYPE,CLASSIFICATION_TYPE,NORAD_CAT_ID,ELEMENT_SET_NO,REV_AT_EPOCH,BSTAR,MEAN_MOTION_DOT,MEAN_MOTION_DDOT
STARLINK-5220,2022-175C,2025-07-21T03:54:33.032448,15.08837038,.0001385,53.2194,3.6755,87.0246,273.0904,0,U,54760,999,14280,.28366E-4,.164E-5,0
STARLINK-5202,2022-175D,2025-07-21T03:59:51.598752,15.08835176,.0001227,53.2190,3.6969,85.3675,274.7457,0,U,54761,999,14280,.27792E-5,-.244E-5,0
STARLINK-5214,2022-175E,2025-07-20T18:06:19.067040,15.08833816,.0001311,53.2195,5.3914,92.2736,267.8407,0,U,54762,999,14490,.22339E-4,.68E-6,0
STARLINK-5191,2022-175F,2025-07-21T10:10:47.365248,15.08836902,.0001544,53.2190,2.4619,86.3123,273.8045,0,U,54763,999,14284,.99849E-5,-.129E-5,0
STARLINK-5458,2022-175G,2025-07-21T11:15:42.793920,15.08845182,.0001261,53.2152,2.0361,84.5284,275.5852,0,U,54764,999,14285,.10393E-3,.1367E-4,0
STARLINK-5471,2022-175J,2025-07-21T03:28:01.058880,15.08838056,.0001384,53.2195,3.5598,88.8164,271.2987,0,U,54766,999,14280,.42254E-4,.385E-5,0
STARLINK-5472,2022-175K,2025-07-20T17:50:23.968608,15.08834339,.0000949,53.2152,5.3180,82.7106,277.3994,0,U,54767,999,14490,.42631E-4,.391E-5,0
STARLINK-5444,2022-175L,2025-07-21T02:41:06.714528,15.08835191,.0001436,53.2171,349.0975,83.8353,276.2803,0,U,54768,999,14300,.68677E-5,-.179E-5,0
STARLINK-5448,2022-175N,2025-07-21T10:10:08.165568,15.08836398,.0001151,53.2186,347.4957,73.4064,286.7055,0,U,54770,999,14305,-.43064E-5,-.356E-5,0
STARLINK-5451,2022-175P,2025-07-21T02:59:30.164352,15.08835572,.0001412,53.2190,358.4551,92.3238,267.7916,0,U,54771,999,14287,.16662E-4,-.23E-6,0
STARLINK-5452,2022-175Q,2025-07-21T10:04:49.327968,15.08837238,.0001489,53.2173,347.4730,90.8923,269.2239,0,U,54772,999,14305,.14591E-4,-.56E-6,0
STARLINK-5453,2022-175R,2025-07-21T11:09:01.592064,15.08839583,.0001374,53.2172,2.0051,89.4574,270.6576,0,U,54773,999,14285,.27973E-4,.157E-5,0
STARLINK-5454,2022-175S,2025-07-21T09:01:09.247008,15.08836796,.0001218,53.2170,347.2063,85.5809,274.5322,0,U,54774,999,14305,-.31047E-5,-.337E-5,0
STARLINK-5465,2022-175T,2025-07-20T17:34:28.640352,15.08838657,.000165,53.2193,5.2541,94.6470,265.4710,0,U,54775,999,14490,-.35474E-5,-.344E-5,0
STARLINK-5470,2022-175U,2025-07-21T04:10:20.629632,15.08840586,.0001315,53.2192,3.0408,84.6930,275.4212,0,U,54776,999,14281,.62166E-4,.702E-5,0
STARLINK-5468,2022-175V,2025-07-20T17:29:10.315104,15.08838289,.0001418,53.2180,5.2313,91.4053,268.7102,0,U,54777,999,14490,.17248E-4,-.13E-6,0
STARLINK-5450,2022-175W,2025-07-20T19:35:44.227968,15.08840225,.0001438,53.2188,350.1061,88.1686,271.9471,0,U,54778,999,14512,.47907E-4,.475E-5,0
STARLINK-5447,2022-175X,2025-07-20T16:30:16.206048,15.08839862,.0001419,53.2176,350.7217,93.3170,266.7984,0,U,54779,999,14510,.11265E-4,-.109E-5,0
STARLINK-5449,2022-175Y,2025-07-20T16:03:44.833824,15.08836743,.0001214,53.2175,350.6053,88.1184,271.9947,0,U,54780,999,14510,.43662E-4,.407E-5,0
STARLINK-5443,2022-175Z,2025-07-20T19:30:26.018496,15.08827748,.0001172,53.2174,350.0754,78.3390,281.7734,0,U,54781,999,14512,.37064E-4,.302E-5,0
STARLINK-5439,2022-175AB,2025-07-20T16:14:21.128352,15.08842312,.0001234,53.2189,350.6542,89.6810,270.4324,0,U,54783,999,14510,.54713E-4,.583E-5,0
STARLINK-5442,2022-175AC,2025-07-21T04:31:34.031712,15.08839429,.0001546,53.2177,3.1283,85.0474,275.0695,0,U,54784,999,14281,.82051E-5,-.157E-5,0
STARLINK-5440,2022-175AD,2025-07-20T23:44:46.065984,15.08837277,.000113,53.2190,309.1362,86.7680,273.3442,0,U,54785,999,14355,.20021E-4,.31E-6,0
STARLINK-5441,2022-175AF,2025-07-21T10:47:48.240960,15.08838294,.0001523,53.2186,1.9164,83.0045,277.1121,0,U,54787,999,14285,-.40643E-5,-.353E-5,0
STARLINK-5399,2022-175AG,2025-07-21T03:06:08.335296,15.08835142,.0001383,53.2185,348.5040,86.6060,273.5090,0,U,54788,999,14301,.50137E-4,.51E-5,0
STARLINK-5446,2022-175AH,2025-07-21T01:30:04.423680,15.08835713,.0001254,53.2211,333.7040,88.6458,271.4678,0,U,54789,999,14321,.29946E-4,.189E-5,0
STARLINK-5445,2022-175AJ,2025-07-20T18:58:35.901984,15.08838723,.0001286,53.2198,349.9444,83.2858,276.8280,0,U,54790,999,14512,.25365E-4,.116E-5,0
STARLINK-5425,2022-175AK,2025-07-21T03:16:44.949504,15.08839313,.0001301,53.2198,348.5505,85.2221,274.8920,0,U,54791,999,14301,.16059E-4,-.32E-6,0
STARLINK-5431,2022-175AL,2025-07-20T17:07:57.037440,15.08838375,.0001281,53.2185,5.1417,85.6018,274.5120,0,U,54792,999,14490,.30962E-4,.205E-5,0
STARLINK-5433,2022-175AM,2025-07-21T01:42:42.146496,15.08833102,.0001279,53.2183,338.9095,86.7428,273.3711,0,U,54793,999,14314,-.32523E-4,-.805E-5,0
