STARLINK-5220           
1 54760U 22175C   25202.16288232  .00000164  00000+0  28366-4 0  9991
2 54760  53.2194   3.6755 0001385  87.0246 273.0904 15.08837038142801
STARLINK-5202           
1 54761U 22175D   25202.16656943 -.00000244  00000+0  27792-5 0  9993
2 54761  53.2190   3.6969 0001227  85.3675 274.7457 15.08835176142809
STARLINK-5214           
1 54762U 22175E   25201.75438735  .00000068  00000+0  22339-4 0  9999
2 54762  53.2195   5.3914 0001311  92.2736 267.8407 15.08833816144903
STARLINK-5191           
1 54763U 22175F   25202.42415932 -.00000129  00000+0  99849-5 0  9999
2 54763  53.2190   2.4619 0001544  86.3123 273.8045 15.08836902142846
STARLINK-5458           
1 54764U 22175G   25202.46924530  .00001367  00000+0  10393-3 0  9992
2 54764  53.2152   2.0361 0001261  84.5284 275.5852 15.08845182142855
STARLINK-5471           
1 54766U 22175J   25202.14445670  .00000385  00000+0  42254-4 0  9993
2 54766  53.2195   3.5598 0001384  88.8164 271.2987 15.08838056142801
STARLINK-5472           
1 54767U 22175K   25201.74333297  .00000391  00000+0  42631-4 0  9996
2 54767  53.2152   5.3180 0000949  82.7106 277.3994 15.08834339144905
STARLINK-5444           
1 54768U 22175L   25202.11188327 -.00000179  00000+0  68677-5 0  9995
2 54768  53.2171 349.0975 0001436  83.8353 276.2803 15.08835191143009
STARLINK-5448           
1 54770U 22175N   25202.42370562 -.00000356  00000+0 -43064-5 0  9997
2 54770  53.2186 347.4957 0001151  73.4064 286.7055 15.08836398143058
STARLINK-5451           
1 54771U 22175P   25202.12465468 -.00000023  00000+0  16662-4 0  9998
2 54771  53.2190 358.4551 0001412  92.3238 267.7916 15.08835572142876
STARLINK-5452           
1 54772U 22175Q   25202.42001537 -.00000056  00000+0  14591-4 0  9990
2 54772  53.2173 347.4730 0001489  90.8923 269.2239 15.08837238143050
STARLINK-5453           
1 54773U 22175R   25202.46460176  .00000157  00000+0  27973-4 0  9992
2 54773  53.2172   2.0051 0001374  89.4574 270.6576 15.08839583142851
STARLINK-5454           
1 54774U 22175S   25202.37580147 -.00000337  00000+0 -31047-5 0  9994
2 54774  53.2170 347.2063 0001218  85.5809 274.5322 15.08836796143050
STARLINK-5465           
1 54775U 22175T   25201.73227593 -.00000344  00000+0 -35474-5 0  9993
2 54775  53.2193   5.2541 0001650  94.6470 265.4710 15.08838657144906
STARLINK-5470           
1 54776U 22175U   25202.17384988  .00000702  00000+0  62166-4 0  9998
2 54776  53.2192   3.0408 0001315  84.6930 275.4212 15.08840586142812
STARLINK-5468           
1 54777U 22175V   25201.72859161 -.00000013  00000+0  17248-4 0  9996
2 54777  53.2180   5.2313 0001418  91.4053 268.7102 15.08838289144907
STARLINK-5450           
1 54778U 22175W   25201.81648412  .00000475  00000+0  47907-4 0  9998
2 54778  53.2188 350.1061 0001438  88.1686 271.9471 15.08840225145128
STARLINK-5447           
1 54779U 22175X   25201.68768757 -.00000109  00000+0  11265-4 0  9992
2 54779  53.2176 350.7217 0001419  93.3170 266.7984 15.08839862145104
STARLINK-5449           
1 54780U 22175Y   25201.66926891  .00000407  00000+0  43662-4 0  9993
2 54780  53.2175 350.6053 0001214  88.1184 271.9947 15.08836743145104
STARLINK-5443           
1 54781U 22175Z   25201.81280114  .00000302  00000+0  37064-4 0  9995
2 54781  53.2174 350.0754 0001172  78.3390 281.7734 15.08827748145129
STARLINK-5439           
1 54783U 22175AB  25201.67663343  .00000583  00000+0  54713-4 0  9991
2 54783  53.2189 350.6542 0001234  89.6810 270.4324 15.08842312145101
STARLINK-5442           
1 54784U 22175AC  25202.18858833 -.00000157  00000+0  82051-5 0  9994
2 54784  53.2177   3.1283 0001546  85.0474 275.0695 15.08839429142815
STARLINK-5440           
1 54785U 22175AD  25201.98942206  .00000031  00000+0  20021-4 0  9998
2 54785  53.2190 309.1362 0001130  86.7680 273.3442 15.08837277143556
STARLINK-5441           
1 54787U 22175AF  25202.44986390 -.00000353  00000+0 -40643-5 0  9996
2 54787  53.2186   1.9164 0001523  83.0045 277.1121 15.08838294142859
STARLINK-5399           
1 54788U 22175AG  25202.12926314  .00000510  00000+0  50137-4 0  9993
2 54788  53.2185 348.5040 0001383  86.6060 273.5090 15.08835142143015
STARLINK-5446           
1 54789U 22175AH  25202.06255120  .00000189  00000+0  29946-4 0  9993
2 54789  53.2211 333.7040 0001254  88.6458 271.4678 15.08835713143217
STARLINK-5445           
1 54790U 22175AJ  25201.79069331  .00000116  00000+0  25365-4 0  9992
2 54790  53.2198 349.9444 0001286  83.2858 276.8280 15.08838723145124
STARLINK-5425           
1 54791U 22175AK  25202.13663136 -.00000032  00000+0  16059-4 0  9993
2 54791  53.2198 348.5505 0001301  85.2221 274.8920 15.08839313143013
STARLINK-5431           
1 54792U 22175AL  25201.71385460  .00000205  00000+0  30962-4 0  9998
2 54792  53.2185   5.1417 0001281  85.6018 274.5120 15.08838375144908
STARLINK-5433           
1 54793U 22175AM  25202.07132114 -.00000805  00000+0 -32523-4 0  9998
2 54793  53.2183 338.9095 0001279  86.7428 273.3711 15.08833102143141
